STARLINK-2288
1 18034C 21024BK  21326.19238704  .00003208  00000-0  21490-3 0  3262
2 18034  53.0537 172.8825 0002141  76.5985 237.0916 15.06402289    11
